CCSDS_OMM_VERS = 2.0
CREATION_DATE  = 
ORIGINATOR     = 

OBJECT_NAME    = SHIJIAN-16 (SJ-16)
OBJECT_ID      = 2013-057A
CENTER_NAME    = EARTH
REF_FRAME      = TEME
TIME_SYSTEM    = UTC
MEAN_ELEMENT_THEORY = SGP/SGP4

EPOCH          = 2025-11-30T04:43:33.647808
MEAN_MOTION    = 14.91935626
ECCENTRICITY   = .0017221
INCLINATION    = 74.9741
RA_OF_ASC_NODE = 13.3865
ARG_OF_PERICENTER = 349.4895
MEAN_ANOMALY   = 10.5930

EPHEMERIS_TYPE = 0
CLASSIFICATION_TYPE = U
NORAD_CAT_ID   = 39358
ELEMENT_SET_NO = 999
REV_AT_EPOCH   = 65666
BSTAR          = .2287E-3
MEAN_MOTION_DOT = .2292E-4
MEAN_MOTION_DDOT = 0

CCSDS_OMM_VERS = 2.0
CREATION_DATE  = 
ORIGINATOR     = 

OBJECT_NAME    = SL-4 R/B
OBJECT_ID      = 2014-021B
CENTER_NAME    = EARTH
REF_FRAME      = TEME
TIME_SYSTEM    = UTC
MEAN_ELEMENT_THEORY = SGP/SGP4

EPOCH          = 2025-11-30T01:30:01.975104
MEAN_MOTION    = 15.36184940
ECCENTRICITY   = .0102924
INCLINATION    = 51.6067
RA_OF_ASC_NODE = 102.1827
ARG_OF_PERICENTER = 100.6207
MEAN_ANOMALY   = 260.6387

EPHEMERIS_TYPE = 0
CLASSIFICATION_TYPE = U
NORAD_CAT_ID   = 39679
ELEMENT_SET_NO = 999
REV_AT_EPOCH   = 64094
BSTAR          = .37062E-3
MEAN_MOTION_DOT = .15434E-3
MEAN_MOTION_DDOT = 0

CCSDS_OMM_VERS = 2.0
CREATION_DATE  = 
ORIGINATOR     = 

OBJECT_NAME    = ALOS-2
OBJECT_ID      = 2014-029A
CENTER_NAME    = EARTH
REF_FRAME      = TEME
TIME_SYSTEM    = UTC
MEAN_ELEMENT_THEORY = SGP/SGP4

EPOCH          = 2025-11-30T05:32:31.252128
MEAN_MOTION    = 14.79497391
ECCENTRICITY   = .0001364
INCLINATION    = 97.9231
RA_OF_ASC_NODE = 69.2549
ARG_OF_PERICENTER = 99.2796
MEAN_ANOMALY   = 260.8570

EPHEMERIS_TYPE = 0
CLASSIFICATION_TYPE = U
NORAD_CAT_ID   = 39766
ELEMENT_SET_NO = 999
REV_AT_EPOCH   = 62216
BSTAR          = .32159E-3
MEAN_MOTION_DOT = .2352E-4
MEAN_MOTION_DDOT = 0

CCSDS_OMM_VERS = 2.0
CREATION_DATE  = 
ORIGINATOR     = 

OBJECT_NAME    = YAOGAN-29
OBJECT_ID      = 2015-069A
CENTER_NAME    = EARTH
REF_FRAME      = TEME
TIME_SYSTEM    = UTC
MEAN_ELEMENT_THEORY = SGP/SGP4

EPOCH          = 2025-11-30T04:49:49.778976
MEAN_MOTION    = 14.82860456
ECCENTRICITY   = .0001003
INCLINATION    = 98.0231
RA_OF_ASC_NODE = 357.3321
ARG_OF_PERICENTER = 14.7249
MEAN_ANOMALY   = 345.3994

EPHEMERIS_TYPE = 0
CLASSIFICATION_TYPE = U
NORAD_CAT_ID   = 41038
ELEMENT_SET_NO = 999
REV_AT_EPOCH   = 54113
BSTAR          = .7835E-4
MEAN_MOTION_DOT = .58E-5
MEAN_MOTION_DDOT = 0

CCSDS_OMM_VERS = 2.0
CREATION_DATE  = 
ORIGINATOR     = 

OBJECT_NAME    = ASTRO-H (HITOMI)
OBJECT_ID      = 2016-012A
CENTER_NAME    = EARTH
REF_FRAME      = TEME
TIME_SYSTEM    = UTC
MEAN_ELEMENT_THEORY = SGP/SGP4

EPOCH          = 2025-11-30T02:59:36.111264
MEAN_MOTION    = 15.09227909
ECCENTRICITY   = .0009514
INCLINATION    = 31.0001
RA_OF_ASC_NODE = 278.6907
ARG_OF_PERICENTER = 50.2735
MEAN_ANOMALY   = 309.8740

EPHEMERIS_TYPE = 0
CLASSIFICATION_TYPE = U
NORAD_CAT_ID   = 41337
ELEMENT_SET_NO = 999
REV_AT_EPOCH   = 53717
BSTAR          = .23073E-3
MEAN_MOTION_DOT = .3858E-4
MEAN_MOTION_DDOT = 0

CCSDS_OMM_VERS = 2.0
CREATION_DATE  = 
ORIGINATOR     = 

OBJECT_NAME    = HXMT (HUIYAN)
OBJECT_ID      = 2017-034A
CENTER_NAME    = EARTH
REF_FRAME      = TEME
TIME_SYSTEM    = UTC
MEAN_ELEMENT_THEORY = SGP/SGP4

EPOCH          = 2025-11-30T03:24:22.899744
MEAN_MOTION    = 15.16084657
ECCENTRICITY   = .0033372
INCLINATION    = 43.0135
RA_OF_ASC_NODE = 209.5297
ARG_OF_PERICENTER = 323.4892
MEAN_ANOMALY   = 36.3681

EPHEMERIS_TYPE = 0
CLASSIFICATION_TYPE = U
NORAD_CAT_ID   = 42758
ELEMENT_SET_NO = 999
REV_AT_EPOCH   = 46742
BSTAR          = .32004E-3
MEAN_MOTION_DOT = .6125E-4
MEAN_MOTION_DDOT = 0

CCSDS_OMM_VERS = 2.0
CREATION_DATE  = 
ORIGINATOR     = 

OBJECT_NAME    = CZ-2C R/B
OBJECT_ID      = 2018-054D
CENTER_NAME    = EARTH
REF_FRAME      = TEME
TIME_SYSTEM    = UTC
MEAN_ELEMENT_THEORY = SGP/SGP4

EPOCH          = 2025-11-30T02:25:50.631744
MEAN_MOTION    = 15.71034090
ECCENTRICITY   = .0018813
INCLINATION    = 35.1344
RA_OF_ASC_NODE = 266.4071
ARG_OF_PERICENTER = 11.6255
MEAN_ANOMALY   = 348.4909

EPHEMERIS_TYPE = 0
CLASSIFICATION_TYPE = U
NORAD_CAT_ID   = 43521
ELEMENT_SET_NO = 999
REV_AT_EPOCH   = 41306
BSTAR          = .78979E-3
MEAN_MOTION_DOT = .105169E-2
MEAN_MOTION_DDOT = 0

CCSDS_OMM_VERS = 2.0
CREATION_DATE  = 
ORIGINATOR     = 

OBJECT_NAME    = SAOCOM 1A
OBJECT_ID      = 2018-076A
CENTER_NAME    = EARTH
REF_FRAME      = TEME
TIME_SYSTEM    = UTC
MEAN_ELEMENT_THEORY = SGP/SGP4

EPOCH          = 2025-11-30T04:22:44.330592
MEAN_MOTION    = 14.82155388
ECCENTRICITY   = .0001573
INCLINATION    = 97.8848
RA_OF_ASC_NODE = 158.7873
ARG_OF_PERICENTER = 87.7912
MEAN_ANOMALY   = 272.3481

EPHEMERIS_TYPE = 0
CLASSIFICATION_TYPE = U
NORAD_CAT_ID   = 43641
ELEMENT_SET_NO = 999
REV_AT_EPOCH   = 38662
BSTAR          = .81765E-4
MEAN_MOTION_DOT = .599E-5
MEAN_MOTION_DDOT = 0

CCSDS_OMM_VERS = 2.0
CREATION_DATE  = 
ORIGINATOR     = 

OBJECT_NAME    = H-2A R/B
OBJECT_ID      = 2018-084L
CENTER_NAME    = EARTH
REF_FRAME      = TEME
TIME_SYSTEM    = UTC
MEAN_ELEMENT_THEORY = SGP/SGP4

EPOCH          = 2025-11-30T03:04:20.590176
MEAN_MOTION    = 15.36709914
ECCENTRICITY   = .0028315
INCLINATION    = 98.8788
RA_OF_ASC_NODE = 165.5996
ARG_OF_PERICENTER = 9.6852
MEAN_ANOMALY   = 350.4927

EPHEMERIS_TYPE = 0
CLASSIFICATION_TYPE = U
NORAD_CAT_ID   = 43682
ELEMENT_SET_NO = 999
REV_AT_EPOCH   = 39046
BSTAR          = .58567E-3
MEAN_MOTION_DOT = .21211E-3
MEAN_MOTION_DDOT = 0

CCSDS_OMM_VERS = 2.0
CREATION_DATE  = 
ORIGINATOR     = 

OBJECT_NAME    = SAOCOM 1B
OBJECT_ID      = 2020-059A
CENTER_NAME    = EARTH
REF_FRAME      = TEME
TIME_SYSTEM    = UTC
MEAN_ELEMENT_THEORY = SGP/SGP4

EPOCH          = 2025-11-30T03:30:29.863008
MEAN_MOTION    = 14.82164136
ECCENTRICITY   = .0001365
INCLINATION    = 97.8844
RA_OF_ASC_NODE = 157.8528
ARG_OF_PERICENTER = 90.4354
MEAN_ANOMALY   = 269.7016

EPHEMERIS_TYPE = 0
CLASSIFICATION_TYPE = U
NORAD_CAT_ID   = 46265
ELEMENT_SET_NO = 999
REV_AT_EPOCH   = 28400
BSTAR          = .81965E-4
MEAN_MOTION_DOT = .601E-5
MEAN_MOTION_DDOT = 0

CCSDS_OMM_VERS = 2.0
CREATION_DATE  = 
ORIGINATOR     = 

OBJECT_NAME    = CSS (TIANHE)
OBJECT_ID      = 2021-035A
CENTER_NAME    = EARTH
REF_FRAME      = TEME
TIME_SYSTEM    = UTC
MEAN_ELEMENT_THEORY = SGP/SGP4

EPOCH          = 2025-11-30T00:41:37.538016
MEAN_MOTION    = 15.58412090
ECCENTRICITY   = .0010548
INCLINATION    = 41.4664
RA_OF_ASC_NODE = 93.8273
ARG_OF_PERICENTER = 296.7177
MEAN_ANOMALY   = 63.2581

EPHEMERIS_TYPE = 0
CLASSIFICATION_TYPE = U
NORAD_CAT_ID   = 48274
ELEMENT_SET_NO = 999
REV_AT_EPOCH   = 26204
BSTAR          = .19848E-3
MEAN_MOTION_DOT = .15274E-3
MEAN_MOTION_DDOT = 0

CCSDS_OMM_VERS = 2.0
CREATION_DATE  = 
ORIGINATOR     = 

OBJECT_NAME    = COSMOS 2550
OBJECT_ID      = 2021-056A
CENTER_NAME    = EARTH
REF_FRAME      = TEME
TIME_SYSTEM    = UTC
MEAN_ELEMENT_THEORY = SGP/SGP4

EPOCH          = 2025-11-29T19:33:31.970304
MEAN_MOTION    = 15.33825458
ECCENTRICITY   = .0008394
INCLINATION    = 67.1430
RA_OF_ASC_NODE = 343.0291
ARG_OF_PERICENTER = 269.4513
MEAN_ANOMALY   = 90.5680

EPHEMERIS_TYPE = 0
CLASSIFICATION_TYPE = U
NORAD_CAT_ID   = 48865
ELEMENT_SET_NO = 999
REV_AT_EPOCH   = 24814
BSTAR          = .14678E-5
MEAN_MOTION_DOT = -.143E-5
MEAN_MOTION_DDOT = 0

