SHIJIAN-16 (SJ-16)      
1 39358U 13057A   25334.19691722  .00002292  00000+0  22870-3 0  9994
2 39358  74.9741  13.3865 0017221 349.4895  10.5930 14.91935626656666
SL-4 R/B                
1 39679U 14021B   25334.06252286  .00015434  00000+0  37062-3 0  9997
2 39679  51.6067 102.1827 0102924 100.6207 260.6387 15.36184940640942
ALOS-2                  
1 39766U 14029A   25334.23091727  .00002352  00000+0  32159-3 0  9999
2 39766  97.9231  69.2549 0001364  99.2796 260.8570 14.79497391622164
YAOGAN-29               
1 41038U 15069A   25334.20127059  .00000580  00000+0  78350-4 0  9999
2 41038  98.0231 357.3321 0001003  14.7249 345.3994 14.82860456541131
ASTRO-H (HITOMI)        
1 41337U 16012A   25334.12472351  .00003858  00000+0  23073-3 0  9991
2 41337  31.0001 278.6907 0009514  50.2735 309.8740 15.09227909537173
HXMT (HUIYAN)           
1 42758U 17034A   25334.14193171  .00006125  00000+0  32004-3 0  9990
2 42758  43.0135 209.5297 0033372 323.4892  36.3681 15.16084657467420
CZ-2C R/B               
1 43521U 18054D   25334.10128046  .00105169  00000+0  78979-3 0  9996
2 43521  35.1344 266.4071 0018813  11.6255 348.4909 15.71034090413065
SAOCOM 1A               
1 43641U 18076A   25334.18245753  .00000599  00000+0  81765-4 0  9995
2 43641  97.8848 158.7873 0001573  87.7912 272.3481 14.82155388386620
H-2A R/B                
1 43682U 18084L   25334.12801609  .00021211  00000+0  58567-3 0  9998
2 43682  98.8788 165.5996 0028315   9.6852 350.4927 15.36709914390460
SAOCOM 1B               
1 46265U 20059A   25334.14617897  .00000601  00000+0  81965-4 0  9998
2 46265  97.8844 157.8528 0001365  90.4354 269.7016 14.82164136284002
CSS (TIANHE)            
1 48274U 21035A   25334.02890669  .00015274  00000+0  19848-3 0  9994
2 48274  41.4664  93.8273 0010548 296.7177  63.2581 15.58412090262045
COSMOS 2550             
1 48865U 21056A   25333.81495336 -.00000143  00000+0  14678-5 0  9999
2 48865  67.1430 343.0291 0008394 269.4513  90.5680 15.33825458248141
